     2.100          NAVIGATION                              RINEX VERSION / TYPE
fic2rin                                 12/21/2014 00:39:37 PGM / RUN BY / DATE
                                                            END OF HEADER
29 14 12 20 12  0  0.0  .580741092563D-03  .238742359215D-11  .000000000000D+00
     .440000000000D+02 -.637187500000D+02  .405588322953D-08  .871166364467D+00
    -.327825546265D-05  .119664473459D-02  .116620212793D-04  .515359220123D+04
     .561600000000D+06  .242143869400D-07 -.479776404270D-01 -.633299350739D-07
     .972012067816D+00  .164468750000D+03 -.887880358592D+00 -.767139097280D-08
     .360014996070D-09  .100000000000D+01  .182300000000D+04  .000000000000D+00
     .240000000000D+01  .000000000000D+00 -.977888703346D-08  .440000000000D+02
     .554406000000D+06  .400000000000D+01
31 14 12 20 12  0  0.0  .327047891915D-03 -.682121026330D-12  .000000000000D+00
     .110000000000D+03  .920625000000D+02  .422589031101D-08  .150020574865D+01
     .483915209770D-05  .830203958321D-02  .146776437759D-05  .515369423676D+04
     .561600000000D+06  .149011611938D-06 -.216419794986D+01  .104308128357D-06
     .976693338375D+00  .355406250000D+03 -.593900355248D+00 -.816105422638D-08
     .219294848796D-09  .100000000000D+01  .182300000000D+04  .000000000000D+00
     .340000000000D+01  .000000000000D+00 -.135041773319D-07  .110000000000D+03
     .554406000000D+06  .400000000000D+01
32 14 12 20 12  0  0.0 -.266577582806D-03  .875388650456D-11  .000000000000D+00
     .260000000000D+02 -.204375000000D+02  .495342061557D-08  .202345410953D+01
    -.104494392872D-05  .114016442094D-01  .831671059132D-05  .515359753227D+04
     .561600000000D+06 -.540167093277D-07  .207656197252D+01  .223517417908D-06
     .946857523525D+00  .212375000000D+03 -.887451749928D-02 -.808605110220D-08
    -.787889961637D-09  .100000000000D+01  .182300000000D+04  .000000000000D+00
     .240000000000D+01  .000000000000D+00 -.325962901115D-08  .260000000000D+02
     .554406000000D+06  .400000000000D+01
 2 14 12 20 11 59 44.0  .536947045475D-03  .227373675443D-11  .000000000000D+00
     .140000000000D+02  .253125000000D+02  .522450333582D-08  .277446632496D+01
     .114738941193D-05  .140614790143D-01  .674091279507D-05  .515372747231D+04
     .561584000000D+06 -.502914190292D-07  .917676225538D+00 -.223517417908D-06
     .940009751751D+00  .235500000000D+03 -.235577787892D+01 -.806355016495D-08
     .475376944215D-09  .100000000000D+01  .182300000000D+04  .000000000000D+00
     .240000000000D+01  .000000000000D+00 -.204890966415D-07  .140000000000D+02
     .556386000000D+06  .400000000000D+01
31 14 12 20 11 59 44.0  .327049754560D-03 -.682121026330D-12  .000000000000D+00
     .230000000000D+02  .920625000000D+02  .422589031101D-08  .149787196422D+01
     .483915209770D-05  .830204261001D-02  .146776437759D-05  .515369422531D+04
     .561584000000D+06  .149011611938D-06 -.216419781527D+01  .104308128357D-06
     .976693338375D+00  .355406250000D+03 -.593900268936D+00 -.816105422638D-08
     .218937691062D-09  .100000000000D+01  .182300000000D+04  .000000000000D+00
     .240000000000D+01  .000000000000D+00 -.135041773319D-07  .230000000000D+02
     .556536000000D+06  .400000000000D+01
28 14 12 20 11 59 44.0  .406604725868D-03  .261479726760D-11  .000000000000D+00
     .340000000000D+02 -.123593750000D+03  .413195782691D-08 -.115078377165D+01
    -.597164034843D-05  .197249642806D-01  .459514558315D-05  .515368491173D+04
     .561584000000D+06 -.150874257088D-06 -.108041187343D+01  .456348061562D-06
     .987946951270D+00  .306593750000D+03 -.169027424195D+01 -.823605735056D-08
    -.280725979078D-09  .100000000000D+01  .182300000000D+04  .000000000000D+00
     .240000000000D+01  .000000000000D+00 -.111758708954D-07  .340000000000D+02
     .560346000000D+06  .400000000000D+01
 2 14 12 20 13 59 44.0  .536962877959D-03  .227373675443D-11  .000000000000D+00
     .260000000000D+02  .209062500000D+02  .535093717373D-08 -.245857706944D+01
     .108964741230D-05  .140621304745D-01  .663660466671D-05  .515372624016D+04
     .568784000000D+06  .204890966415D-06  .917616898358D+00 -.199303030968D-06
     .940013292012D+00  .237937500000D+03 -.235576538706D+01 -.817248327387D-08
     .636455082337D-09  .100000000000D+01  .182300000000D+04  .000000000000D+00
     .240000000000D+01  .000000000000D+00 -.204890966415D-07  .260000000000D+02
     .561606000000D+06  .400000000000D+01
28 14 12 20 13 59 44.0  .406624283642D-03  .261479726760D-11  .000000000000D+00
     .350000000000D+02 -.117562500000D+03  .405374028313D-08 -.100592600966D+00
    -.619702041149D-05  .197257481050D-01  .479817390442D-05  .515368659592D+04
     .568784000000D+06 -.301748514175D-06 -.108047243532D+01  .156462192535D-06
     .987944679359D+00  .304281250000D+03 -.169029443461D+01 -.838213486385D-08
    -.264653881039D-09  .100000000000D+01  .182300000000D+04  .000000000000D+00
     .240000000000D+01  .000000000000D+00 -.111758708954D-07  .350000000000D+02
     .561606000000D+06  .400000000000D+01
31 14 12 20 13 59 44.0  .327044632286D-03 -.682121026330D-12  .000000000000D+00
     .240000000000D+02  .100375000000D+03  .422374736460D-08  .254782477289D+01
     .529922544956D-05  .830155191943D-02  .230222940445D-05  .515369760513D+04
     .568784000000D+06  .484287738800D-07 -.216425645196D+01  .145286321640D-06
     .976694832014D+00  .344375000000D+03 -.593688344771D+00 -.813176729218D-08
     .224295057075D-09  .100000000000D+01  .182300000000D+04  .000000000000D+00
     .240000000000D+01  .000000000000D+00 -.135041773319D-07  .240000000000D+02
     .561606000000D+06  .400000000000D+01
 1 14 12 20 14  0  0.0 -.109747052193D-04  .341060513165D-12  .000000000000D+00
     .330000000000D+02  .254062500000D+02  .493056252058D-08  .313334805691D+01
     .130385160446D-05  .372951140162D-02  .643730163574D-05  .515366142845D+04
     .568800000000D+06 -.633299350739D-07  .951757554465D+00 -.353902578354D-07
     .961397919819D+00  .256312500000D+03  .444414490985D+00 -.806640742682D-08
     .476091259683D-09  .100000000000D+01  .182300000000D+04  .000000000000D+00
     .240000000000D+01  .000000000000D+00  .558793544769D-08  .330000000000D+02
     .561606000000D+06  .400000000000D+01
 3 14 12 20 14  0  0.0  .895340926945D-04  .289901436190D-10  .000000000000D+00
     .440000000000D+02 -.233437500000D+02  .480912889095D-08 -.718702973298D+00
    -.128708779812D-05  .970105873421D-03  .739656388760D-05  .515377954865D+04
     .568800000000D+06  .111758708954D-07  .199257163093D+01  .316649675369D-07
     .959029859215D+00  .234187500000D+03 -.300774351837D+01 -.803926343902D-08
    -.592167523297D-09  .100000000000D+01  .182300000000D+04  .000000000000D+00
     .240000000000D+01  .000000000000D+00  .558793544769D-08  .440000000000D+02
     .561606000000D+06  .400000000000D+01
 4 14 12 20 14  0  0.0 -.454764813185D-05 -.454747350886D-12  .000000000000D+00
     .128000000000D+03  .303437500000D+02  .537308095325D-08  .300428796104D+01
     .145472586155D-05  .109602290904D-01  .607408583164D-05  .515373666954D+04
     .568800000000D+06  .391155481339D-07  .933096151589D+00 -.191852450371D-06
     .939024916763D+00  .248062500000D+03  .104968377657D+01 -.822498546080D-08
     .471448209139D-09  .100000000000D+01  .182300000000D+04  .000000000000D+00
     .240000000000D+01  .000000000000D+00 -.651925802231D-08  .128000000000D+03
     .561606000000D+06  .400000000000D+01
 5 14 12 20 14  0  0.0 -.303677283227D-03  .477484718431D-11  .000000000000D+00
     .105000000000D+03 -.309375000000D+02  .520664544911D-08 -.139342512564D+00
    -.164844095707D-05  .404161307961D-02  .695511698723D-05  .515372958565D+04
     .568800000000D+06  .577419996262D-07  .198762408294D+01  .745058059692D-08
     .946327846239D+00  .235343750000D+03  .414398184228D+00 -.832034657583D-08
    -.643241079287D-09  .100000000000D+01  .182300000000D+04  .000000000000D+00
     .340000000000D+01  .000000000000D+00 -.107102096081D-07  .105000000000D+03
     .561606000000D+06  .400000000000D+01
 6 14 12 20 14  0  0.0  .312021002173D-04  .818545231596D-11  .000000000000D+00
     .930000000000D+02  .198437500000D+02  .496199240119D-08 -.223964352009D+00
     .116974115372D-05  .548161100596D-03  .664219260216D-05  .515365100670D+04
     .568800000000D+06  .204890966415D-07  .943214864822D+00  .130385160446D-07
     .961313502132D+00  .252750000000D+03  .229875616147D+01 -.811569519414D-08
     .507878298027D-09  .100000000000D+01  .182300000000D+04  .000000000000D+00
     .240000000000D+01  .000000000000D+00  .465661287308D-08  .930000000000D+02
     .561606000000D+06  .400000000000D+01
 7 14 12 20 14  0  0.0  .423975288868D-03  .352429196937D-11  .000000000000D+00
     .310000000000D+02  .100656250000D+03  .441161233279D-08  .262889096361D+01
     .519305467606D-05  .794166175183D-02  .179745256901D-05  .515374314690D+04
     .568800000000D+06 -.108033418655D-06 -.217131856756D+01 -.137835741043D-06
     .971792448702D+00  .351375000000D+03 -.275130013650D+01 -.824855787126D-08
     .314655963827D-09  .100000000000D+01  .182300000000D+04  .000000000000D+00
     .240000000000D+01  .000000000000D+00 -.111758708954D-07  .310000000000D+02
     .561606000000D+06  .400000000000D+01
 8 14 12 20 14  0  0.0  .168373808265D-04  .227373675443D-12  .000000000000D+00
     .160000000000D+02  .750312500000D+02  .383051669925D-08 -.260705917587D+01
     .388920307159D-05  .147479779553D-01  .131502747536D-05  .515219506454D+04
     .568800000000D+06 -.149011611938D-07 -.206730404175D+01 -.238418579102D-06
     .995225909371D+00  .372937500000D+03 -.267904472833D+01 -.789354308347D-08
     .331799535068D-09  .100000000000D+01  .182300000000D+04  .000000000000D+00
     .240000000000D+01  .630000000000D+02 -.465661287308D-08  .160000000000D+02
     .561606000000D+06  .400000000000D+01
